OBJECT_NAME,OBJECT_ID,EPOCH,MEAN_MOTION,ECCENTRICITY,INCLINATION,RA_OF_ASC_NODE,ARG_OF_PERICENTER,MEAN_ANOMALY,EPHEMERIS_TYPE,CLASSIFICATION_TYPE,NORAD_CAT_ID,ELEMENT_SET_NO,REV_AT_EPOCH,BSTAR,MEAN_MOTION_DOT,MEAN_MOTION_DDOT
STARLINK-4139,2022-062BB,2024-01-20T01:40:04.939968,15.08847765,.0001519,53.2163,273.9703,93.5963,266.5203,0,U,52879,999,8837,.23098E-3,.3391E-4,0
STARLINK-4181,2022-062BE,2024-01-19T22:30:42.060384,15.08842396,.0001518,53.2167,274.6095,101.9829,258.1333,0,U,52882,999,8835,.13345E-3,.1837E-4,0
GLOBALSTAR M087,2022-064A,2024-01-20T08:02:27.345408,13.37562885,.0009477,51.9780,7.4176,349.3128,10.7570,0,U,52888,999,7760,.78049E-4,-.87E-6,0
KSLV-II DUMMY,2022-065B,2024-01-20T09:00:10.037088,14.58311038,.0007091,98.1011,164.1851,250.9361,109.1071,0,U,52895,999,8425,.5021E-4,.187E-5,0
SNUGLITE-II,2022-065F,2024-01-20T09:12:01.235232,14.60104329,.0006675,98.0942,164.7022,255.8160,104.2299,0,U,52899,999,8254,.49661E-3,.2344E-4,0
MIMAN,2022-065G,2024-01-20T08:26:20.279040,14.59273736,.0006605,98.0972,164.3662,249.7376,110.3114,0,U,52900,999,8214,.32447E-3,.1487E-4,0
CMS-02 (GSAT 24),2022-067A,2024-01-20T13:00:32.582592,1.00270012,.0002298,0.1163,273.2422,188.2769,296.0072,0,U,52903,999,579,0,-.16E-5,0
MEASAT 3D,2022-067B,2024-01-20T13:10:32.836224,1.00271066,.0003566,0.0366,322.9211,342.9410,102.6798,0,U,52904,999,583,0,-.237E-5,0
DS-EO,2022-072A,2024-01-19T20:41:04.207200,15.02632885,.0006494,9.9938,228.0583,190.5142,169.4937,0,U,52935,999,8551,.18487E-3,.3271E-4,0
NEUSAR,2022-072C,2024-01-16T19:17:58.948800,15.08664091,.0003905,9.9768,240.1076,133.0698,226.9843,0,U,52937,999,8517,.15962E-2,.26632E-3,0
WFOV (USA 332),2022-073A,2024-01-20T13:09:42.661152,1.00271618,.0001629,1.4412,90.3063,153.0625,192.7705,0,U,52940,999,555,0,-.36E-5,0
RECURVE,2022-074A,2024-01-20T15:20:50.426592,15.47893210,.0007383,45.0058,239.3961,200.0363,160.0239,0,U,52944,999,8701,.84515E-3,.44956E-3,0
NACHOS-2,2022-074B,2024-01-20T14:36:34.044768,15.50936731,.0007806,44.9862,234.9730,220.4673,139.5639,0,U,52945,999,8705,.10028E-2,.59618E-3,0
GPX2 3U,2022-074E,2024-01-20T14:14:32.690688,15.57038843,.0012012,44.9920,225.1014,227.4540,132.5340,0,U,52948,999,8717,.11144E-2,.83315E-3,0
COSMOS 2557 [GLONASS-K],2022-075A,2024-01-20T04:23:35.117376,2.13101765,.0013838,64.7234,345.2795,283.8346,76.0065,0,U,52984,999,1198,0,-.8E-6,0
STARLINK-4260,2022-076A,2024-01-20T07:56:19.299552,15.08848648,.0001736,53.2178,352.7963,110.1922,249.9257,0,U,52986,999,8518,.12901E-3,.1766E-4,0
STARLINK-4259,2022-076B,2024-01-20T05:42:31.349376,15.08844459,.0001778,53.2174,3.2116,112.6705,247.4475,0,U,52987,999,8503,.15497E-3,.2179E-4,0
STARLINK-4291,2022-076C,2024-01-20T07:51:01.481472,15.08862401,.0001404,53.2168,352.8152,95.4890,264.6262,0,U,52988,999,8565,.10785E-2,.16928E-3,0
STARLINK-4293,2022-076D,2024-01-20T04:01:50.005632,15.08845836,.0001854,53.2167,3.5222,103.8304,256.2894,0,U,52989,999,8502,.36033E-4,.285E-5,0
STARLINK-4286,2022-076E,2024-01-20T05:31:55.789248,15.08839930,.0001499,53.2171,3.2338,99.7778,260.3383,0,U,52990,999,8503,.89829E-4,.1142E-4,0
