52879,STARLINK-4139,2022,95.44,260.0,+,53.22,Active,1,LEO,USA,USA,Commercial,Communications,Falcon,1 52879U 22062BB  24020.06950162  .00003391  00000+0  23098-3 0  9990,2 52879  53.2163 273.9703 0001519  93.5963 266.5203 15.08847765 88376,15.08847765,0.0001519,LEO
52882,STARLINK-4181,2022,95.44,260.0,+,53.22,Active,1,LEO,USA,USA,Commercial,Communications,Falcon,1 52882U 22062BE  24019.93798681  .00001837  00000+0  13345-3 0  9991,2 52882  53.2167 274.6095 0001518 101.9829 258.1333 15.08842396 88354,15.08842396,0.0001518,LEO
52888,GLOBALSTAR M087,2022,107.66,715.0,+,51.98,Active,1,LEO,USA,USA,Commercial,Communications,Falcon,1 52888U 22064A   24020.33503872 -.00000087  00000+0  78049-4 0  9991,2 52888  51.9780   7.4176 0009477 349.3128  10.7570 13.37562885 77603,13.37562885,0.0009477,LEO
52895,KSLV-II DUMMY,2022,98.74,-1.0,+,98.1,Active,0,LEO,Republic of Korea,South Korea,Unknown,Unknown,Unknown,1 52895U 22065B   24020.37511617  .00000187  00000+0  50210-4 0  9990,2 52895  98.1011 164.1851 0007091 250.9361 109.1071 14.58311038 84252,14.58311038,0.0007091,LEO
52899,SNUGLITE-II,2022,98.62,4.0,+,98.09,Active,1,LEO,Republic of Korea,South Korea,Civil,Technology Development,Nuri,1 52899U 22065F   24020.38334763  .00002344  00000+0  49661-3 0  9994,2 52899  98.0942 164.7022 0006675 255.8160 104.2299 14.60104329 82546,14.60104329,0.0006675,LEO
52900,MIMAN,2022,98.68,-1.0,+,98.1,Active,0,LEO,Republic of Korea,South Korea,Unknown,Unknown,Nuri,1 52900U 22065G   24020.35162360  .00001487  00000+0  32447-3 0  9997,2 52900  98.0972 164.3662 0006605 249.7376 110.3114 14.59273736 82149,14.59273736,0.0006605,LEO
52903,CMS-02 (GSAT 24),2022,1436.12,4181.0,+,0.12,Active,1,GSO,French Guiana,India,Government,Communications,Ariane,1 52903U 22067A   24020.54204378 -.00000160  00000+0  00000+0 0  9993,2 52903   0.1163 273.2422 0002298 188.2769 296.0072  1.00270012  5796,1.00270012,0.0002298,GEO
52904,MEASAT 3D,2022,1436.1,5648.0,+,0.04,Active,1,GSO,French Guiana,Malaysia,Commercial,Communications,Ariane,1 52904U 22067B   24020.54899116 -.00000237  00000+0  00000+0 0  9999,2 52904   0.0366 322.9211 0003566 342.9410 102.6798  1.00271066  5832,1.00271066,0.0003566,GEO
52935,DS-EO,2022,95.83,365.0,+,9.99,Active,1,LEO,India,Singapore,Military,Earth Observation,PSLV,1 52935U 22072A   24019.86185425  .00003271  00000+0  18487-3 0  9995,2 52935   9.9938 228.0583 0006494 190.5142 169.4937 15.02632885 85515,15.02632885,0.0006494,LEO
52937,NEUSAR,2022,95.45,155.0,+,9.98,Active,1,LEO,India,Singapore,Commercial,Earth Observation,PSLV,1 52937U 22072C   24016.80415450  .00026632  00000+0  15962-2 0  9992,2 52937   9.9768 240.1076 0003905 133.0698 226.9843 15.08664091 85179,15.08664091,0.0003905,LEO
52940,WFOV (USA 332),2022,1436.09,-1.0,+,1.44,Active,0,GSO,USA,USA,Unknown,Unknown,Atlas,1 52940U 22073A   24020.54841043 -.00000360  00000+0  00000+0 0  9999,2 52940   1.4412  90.3063 0001629 153.0625 192.7705  1.00271618  5557,1.00271618,0.0001629,GSO
52944,RECURVE,2022,93.04,-1.0,+,45.01,Active,0,LEO,Western Range Airspace,USA,Unknown,Unknown,LauncherOne,1 52944U 22074A   24020.63947253  .00044956  00000+0  84515-3 0  9999,2 52944  45.0058 239.3961 0007383 200.0363 160.0239 15.47893210 87013,15.4789321,0.0007383,LEO
52945,NACHOS-2,2022,92.86,-1.0,+,44.99,Active,0,LEO,Western Range Airspace,USA,Unknown,Unknown,LauncherOne,1 52945U 22074B   24020.60872737  .00059618  00000+0  10028-2 0  9999,2 52945  44.9862 234.9730 0007806 220.4673 139.5639 15.50936731 87059,15.50936731,0.0007806,LEO
52948,GPX2 3U,2022,92.5,-1.0,+,44.99,Active,0,LEO,Western Range Airspace,USA,Unknown,Unknown,Unknown,1 52948U 22074E   24020.59343392  .00083315  00000+0  11144-2 0  9991,2 52948  44.9920 225.1014 0012012 227.4540 132.5340 15.57038843 87178,15.57038843,0.0012012,LEO
52984,COSMOS 2557 [GLONASS-K],2022,675.73,974.0,+,64.72,Active,1,MEO,Russia,Russia/USSR,Commercial/Military,Navigation (Global or Regional Positioning),Soyuz,1 52984U 22075A   24020.18304534 -.00000080  00000+0  00000+0 0  9997,2 52984  64.7234 345.2795 0013838 283.8346  76.0065  2.13101765 11987,2.13101765,0.0013838,MEO
52986,STARLINK-4260,2022,95.44,260.0,+,53.22,Active,1,LEO,USA,USA,Commercial,Communications,Falcon,1 52986U 22076A   24020.33077893  .00001766  00000+0  12901-3 0  9990,2 52986  53.2178 352.7963 0001736 110.1922 249.9257 15.08848648 85188,15.08848648,0.0001736,LEO
52987,STARLINK-4259,2022,95.44,260.0,+,53.22,Active,1,LEO,USA,USA,Commercial,Communications,Falcon,1 52987U 22076B   24020.23786284  .00002179  00000+0  15497-3 0  9993,2 52987  53.2174   3.2116 0001778 112.6705 247.4475 15.08844459 85030,15.08844459,0.0001778,LEO
52988,STARLINK-4291,2022,95.44,260.0,+,53.22,Active,1,LEO,USA,USA,Commercial,Communications,Falcon,1 52988U 22076C   24020.32710048  .00016928  00000+0  10785-2 0  9990,2 52988  53.2168 352.8152 0001404  95.4890 264.6262 15.08862401 85184,15.08862401,0.0001404,LEO
52989,STARLINK-4293,2022,95.44,260.0,+,53.22,Active,1,LEO,USA,USA,Commercial,Communications,Falcon,1 52989U 22076D   24020.16793988  .00000285  00000+0  36033-4 0  9992,2 52989  53.2167   3.5222 0001854 103.8304 256.2894 15.08845836 85029,15.08845836,0.0001854,LEO
52990,STARLINK-4286,2022,95.44,260.0,+,53.22,Active,1,LEO,USA,USA,Commercial,Communications,Falcon,1 52990U 22076E   24020.23050682  .00001142  00000+0  89829-4 0  9993,2 52990  53.2171   3.2338 0001499  99.7778 260.3383 15.08839930 85032,15.0883993,0.0001499,LEO
